{
  "type": "FeatureCollection",
  "features": [
    {
      "type": "Feature",
      "properties": {
        "norad_id": 66426,
        "name": "STARLINK-35589",
        "group": "last-30-days",
        "lat": 25.59649168915096,
        "lon": 89.71256809680278,
        "alt_km": 439.8994369875636,
        "timestamp": "2025-12-10T20:49:51.343571+00:00",
        "meta_object_name": "STARLINK-35589",
        "meta_object_id": "2025-259E",
        "meta_epoch": "2025-12-10T14:26:16.620000",
        "meta_mean_motion": 15.40779497,
        "meta_eccentricity": 5.451e-05,
        "meta_inclination": 42.9988,
        "meta_ra_of_asc_node": 60.311,
        "meta_arg_of_pericenter": 253.5463,
        "meta_mean_anomaly": 106.5334,
        "meta_ephemeris_type": 0,
        "meta_classification_type": "U",
        "meta_norad_cat_id": 66426,
        "meta_element_set_no": 999,
        "meta_rev_at_epoch": 583,
        "meta_bstar": 0.0022532189,
        "meta_mean_motion_dot": 0.00095253,
        "meta_mean_motion_ddot": 0,
        "tle_line1": "1 66426U 25259E   25344.60158125  .00095253  00000+0  22532-2 0  9992",
        "tle_line2": "2 66426  42.9988  60.3110 0000545 253.5463 106.5334 15.40779497  5830"
      },
      "geometry": {
        "type": "Point",
        "coordinates": [
          89.71256809680278,
          25.59649168915096
        ]
      }
    },
    {
      "type": "Feature",
      "properties": {
        "norad_id": 66427,
        "name": "STARLINK-35611",
        "group": "last-30-days",
        "lat": 32.355027861702155,
        "lon": 101.57480350294665,
        "alt_km": 439.3660549137994,
        "timestamp": "2025-12-10T20:49:51.343582+00:00",
        "meta_object_name": "STARLINK-35611",
        "meta_object_id": "2025-259F",
        "meta_epoch": "2025-12-10T12:49:41.678688",
        "meta_mean_motion": 15.4069374,
        "meta_eccentricity": 0.00015818,
        "meta_inclination": 43.0005,
        "meta_ra_of_asc_node": 60.666,
        "meta_arg_of_pericenter": 283.5318,
        "meta_mean_anomaly": 76.5363,
        "meta_ephemeris_type": 0,
        "meta_classification_type": "U",
        "meta_norad_cat_id": 66427,
        "meta_element_set_no": 999,
        "meta_rev_at_epoch": 582,
        "meta_bstar": 0.002174395,
        "meta_mean_motion_dot": 0.00091605,
        "meta_mean_motion_ddot": 0,
        "tle_line1": "1 66427U 25259F   25344.53451017  .00091605  00000+0  21744-2 0  9992",
        "tle_line2": "2 66427  43.0005  60.6660 0001581 283.5318  76.5363 15.40693740  5822"
      },
      "geometry": {
        "type": "Point",
        "coordinates": [
          101.57480350294665,
          32.355027861702155
        ]
      }
    },
    {
      "type": "Feature",
      "properties": {
        "norad_id": 66428,
        "name": "STARLINK-35610",
        "group": "last-30-days",
        "lat": 37.8872214800528,
        "lon": 115.31961624466099,
        "alt_km": 440.5249687686619,
        "timestamp": "2025-12-10T20:49:51.343593+00:00",
        "meta_object_name": "STARLINK-35610",
        "meta_object_id": "2025-259G",
        "meta_epoch": "2025-12-10T12:46:27.141312",
        "meta_mean_motion": 15.4072536,
        "meta_eccentricity": 0.00048356,
        "meta_inclination": 43.0056,
        "meta_ra_of_asc_node": 60.6532,
        "meta_arg_of_pericenter": 275.4633,
        "meta_mean_anomaly": 84.5671,
        "meta_ephemeris_type": 0,
        "meta_classification_type": "U",
        "meta_norad_cat_id": 66428,
        "meta_element_set_no": 999,
        "meta_rev_at_epoch": 582,
        "meta_bstar": 0.0019317501,
        "meta_mean_motion_dot": 0.00081347,
        "meta_mean_motion_ddot": 0,
        "tle_line1": "1 66428U 25259G   25344.53225858  .00081347  00000+0  19318-2 0  9991",
        "tle_line2": "2 66428  43.0056  60.6532 0004835 275.4633  84.5671 15.40725360  5827"
      },
      "geometry": {
        "type": "Point",
        "coordinates": [
          115.31961624466099,
          37.8872214800528
        ]
      }
    },
    {
      "type": "Feature",
      "properties": {
        "norad_id": 66429,
        "name": "STARLINK-35533",
        "group": "last-30-days",
        "lat": 41.55806386425043,
        "lon": 130.73476841334977,
        "alt_km": 439.5996952234291,
        "timestamp": "2025-12-10T20:49:51.343603+00:00",
        "meta_object_name": "STARLINK-35533",
        "meta_object_id": "2025-259H",
        "meta_epoch": "2025-12-10T12:43:13.689984",
        "meta_mean_motion": 15.40705021,
        "meta_eccentricity": 0.00035437,
        "meta_inclination": 43.001,
        "meta_ra_of_asc_node": 60.6315,
        "meta_arg_of_pericenter": 271.0151,
        "meta_mean_anomaly": 89.03,
        "meta_ephemeris_type": 0,
        "meta_classification_type": "U",
        "meta_norad_cat_id": 66429,
        "meta_element_set_no": 999,
        "meta_rev_at_epoch": 582,
        "meta_bstar": 0.0016480872,
        "meta_mean_motion_dot": 0.00069189,
        "meta_mean_motion_ddot": 0,
        "tle_line1": "1 66429U 25259H   25344.53001956  .00069189  00000+0  16481-2 0  9991",
        "tle_line2": "2 66429  43.0010  60.6315 0003543 271.0151  89.0300 15.40705021  5820"
      },
      "geometry": {
        "type": "Point",
        "coordinates": [
          130.73476841334977,
          41.55806386425043
        ]
      }
    },
    {
      "type": "Feature",
      "properties": {
        "norad_id": 66430,
        "name": "STARLINK-35470",
        "group": "last-30-days",
        "lat": 42.972155558281486,
        "lon": 147.29434517902442,
        "alt_km": 437.9290611885872,
        "timestamp": "2025-12-10T20:49:51.343614+00:00",
        "meta_object_name": "STARLINK-35470",
        "meta_object_id": "2025-259J",
        "meta_epoch": "2025-12-10T16:00:01.999584",
        "meta_mean_motion": 15.40765168,
        "meta_eccentricity": 0.00012177,
        "meta_inclination": 43.0005,
        "meta_ra_of_asc_node": 59.8164,
        "meta_arg_of_pericenter": 276.6523,
        "meta_mean_anomaly": 134.6628,
        "meta_ephemeris_type": 0,
        "meta_classification_type": "U",
        "meta_norad_cat_id": 66430,
        "meta_element_set_no": 999,
        "meta_rev_at_epoch": 594,
        "meta_bstar": -0.0015817831,
        "meta_mean_motion_dot": -0.00065951,
        "meta_mean_motion_ddot": 0,
        "tle_line1": "1 66430U 25259J   25344.66668981 -.00065951  00000+0 -15818-2 0  9992",
        "tle_line2": "2 66430  43.0005  59.8164 0001217 276.6523 134.6628 15.40765168  5949"
      },
      "geometry": {
        "type": "Point",
        "coordinates": [
          147.29434517902442,
          42.972155558281486
        ]
      }
    },
    {
      "type": "Feature",
      "properties": {
        "norad_id": 66431,
        "name": "STARLINK-35439",
        "group": "last-30-days",
        "lat": 41.91626801409003,
        "lon": 164.17426928160467,
        "alt_km": 438.238264065214,
        "timestamp": "2025-12-10T20:49:51.343626+00:00",
        "meta_object_name": "STARLINK-35439",
        "meta_object_id": "2025-259K",
        "meta_epoch": "2025-12-10T16:00:01.999584",
        "meta_mean_motion": 15.4064164,
        "meta_eccentricity": 0.00012835,
        "meta_inclination": 43.0005,
        "meta_ra_of_asc_node": 59.7844,
        "meta_arg_of_pericenter": 300.3851,
        "meta_mean_anomaly": 123.4762,
        "meta_ephemeris_type": 0,
        "meta_classification_type": "U",
        "meta_norad_cat_id": 66431,
        "meta_element_set_no": 999,
        "meta_rev_at_epoch": 594,
        "meta_bstar": 0.0027801145,
        "meta_mean_motion_dot": 0.00117404,
        "meta_mean_motion_ddot": 0,
        "tle_line1": "1 66431U 25259K   25344.66668981  .00117404  00000+0  27801-2 0  9997",
        "tle_line2": "2 66431  43.0005  59.7844 0001283 300.3851 123.4762 15.40641640  5949"
      },
      "geometry": {
        "type": "Point",
        "coordinates": [
          164.17426928160467,
          41.91626801409003
        ]
      }
    },
    {
      "type": "Feature",
      "properties": {
        "norad_id": 66432,
        "name": "STARLINK-35446",
        "group": "last-30-days",
        "lat": 38.535567704750555,
        "lon": 179.86765108327418,
        "alt_km": 438.6906656122728,
        "timestamp": "2025-12-10T20:49:51.343637+00:00",
        "meta_object_name": "STARLINK-35446",
        "meta_object_id": "2025-259L",
        "meta_epoch": "2025-12-10T16:00:01.999584",
        "meta_mean_motion": 15.40645832,
        "meta_eccentricity": 0.00011564,
        "meta_inclination": 43.0001,
        "meta_ra_of_asc_node": 59.7533,
        "meta_arg_of_pericenter": 275.0497,
        "meta_mean_anomaly": 161.2544,
        "meta_ephemeris_type": 0,
        "meta_classification_type": "U",
        "meta_norad_cat_id": 66432,
        "meta_element_set_no": 999,
        "meta_rev_at_epoch": 594,
        "meta_bstar": 0.0025674702,
        "meta_mean_motion_dot": 0.00108285,
        "meta_mean_motion_ddot": 0,
        "tle_line1": "1 66432U 25259L   25344.66668981  .00108285  00000+0  25675-2 0  9992",
        "tle_line2": "2 66432  43.0001  59.7533 0001156 275.0497 161.2544 15.40645832  5949"
      },
      "geometry": {
        "type": "Point",
        "coordinates": [
          179.86765108327418,
          38.535567704750555
        ]
      }
    }
  ]
}